NORAD_CAT_ID,OBJECT_NAME,OBJECT_TYPE,EPOCH,MEAN_MOTION,ECCENTRICITY,INCLINATION,RA_OF_ASC_NODE,ARG_OF_PERICENTER,MEAN_ANOMALY,BSTAR,MEAN_MOTION_DOT,MEAN_MOTION_DDOT,TLE_LINE0,TLE_LINE1,TLE_LINE2,SEMIMAJOR_AXIS,PERIOD,APOGEE,PERIGEE,DECAYED
54796.0,STARLINK-5415,PAYLOAD,2023-06-22 16:13:07,15.08836599,0.0001096,53.2163,157.7045,82.296,277.8157,5.4247e-05,5.76e-06,0.0,0 STARLINK-5415,1 54796U 22175AQ  23173.67578489  .00000576  00000-0  54247-4 0  9992,2 54796  53.2163 157.7045 0001096  82.2960 277.8157 15.08836599 28365,6917.891,95.438,540.514,538.998,0.0
54796.0,STARLINK-5415,PAYLOAD,2023-06-24 07:57:45,15.08845888,0.0001058,53.2161,150.2708,85.0497,275.0616,6.6605e-05,7.73e-06,0.0,0 STARLINK-5415,1 54796U 22175AQ  23175.33177919  .00000773  00000-0  66605-4 0  9990,2 54796  53.2161 150.2708 0001058  85.0497 275.0616 15.08845888 28610,6917.862,95.437,540.459,538.995,0.0
54796.0,STARLINK-5415,PAYLOAD,2023-06-25 03:02:23,15.08832588,0.0001139,53.2163,146.7032,84.4912,275.621,0.00013946,1.932e-05,0.0,0 STARLINK-5415,1 54796U 22175AQ  23176.12666628  .00001932  00000-0  13946-3 0  9995,2 54796  53.2163 146.7032 0001139  84.4912 275.6210 15.08832588 28739,6917.903,95.438,540.556,538.98,0.0
54796.0,STARLINK-5415,PAYLOAD,2023-06-25 07:48:32,15.08842714,0.0001171,53.2164,145.8099,92.927,267.1856,6.1628e-05,6.93e-06,0.0,0 STARLINK-5415,1 54796U 22175AQ  23176.32538102  .00000693  00000-0  61628-4 0  9996,2 54796  53.2164 145.8099 0001171  92.9270 267.1856 15.08842714 28767,6917.872,95.437,540.547,538.927,0.0
54796.0,STARLINK-5415,PAYLOAD,2023-06-26 06:03:56,15.08842331,0.0001138,53.2162,141.6465,94.1808,265.9314,1.0662e-05,-1.18e-06,0.0,0 STARLINK-5415,1 54796U 22175AQ  23177.25274268 -.00000118  00000-0  10662-4 0  9994,2 54796  53.2162 141.6465 0001138  94.1808 265.9314 15.08842331 28906,6917.873,95.437,540.526,538.951,0.0
54796.0,STARLINK-5415,PAYLOAD,2023-06-27 07:30:07,15.08836529,9.52e-05,53.2169,136.8902,88.917,271.1931,2.7857e-05,1.56e-06,0.0,0 STARLINK-5415,1 54796U 22175AQ  23178.31258844  .00000156  00000-0  27857-4 0  9999,2 54796  53.2169 136.8902 0000952  88.9170 271.1931 15.08836529 29065,6917.891,95.438,540.415,539.097,0.0
54796.0,STARLINK-5415,PAYLOAD,2023-06-29 02:25:32,15.08836546,9.46e-05,53.2171,128.8612,91.7365,268.3735,4.2292e-05,3.85e-06,0.0,0 STARLINK-5415,1 54796U 22175AQ  23180.10107417  .00000385  00000-0  42292-4 0  9992,2 54796  53.2171 128.8612 0000946  91.7365 268.3735 15.08836546 29337,6917.891,95.438,540.41,539.102,0.0
54796.0,STARLINK-5415,PAYLOAD,2023-06-30 13:24:01,15.08847078,0.0001075,53.2174,122.3174,70.2287,289.8821,-0.00012497,-2.277e-05,0.0,0 STARLINK-5415,1 54796U 22175AQ  23181.55835213 -.00002277  00000-0 -12497-3 0  9991,2 54796  53.2174 122.3174 0001075  70.2287 289.8821 15.08847078 29551,6917.859,95.437,540.467,538.98,0.0
54796.0,STARLINK-5415,PAYLOAD,2023-07-01 02:07:07,15.08835284,0.0001046,53.2169,119.9405,81.9799,278.1312,-3.5344e-05,-8.5e-06,0.0,0 STARLINK-5415,1 54796U 22175AQ  23182.08828044 -.00000850  00000-0 -35344-4 0  9996,2 54796  53.2169 119.9405 0001046  81.9799 278.1312 15.08835284 29630,6917.895,95.438,540.483,539.036,0.0
54796.0,STARLINK-5415,PAYLOAD,2023-07-02 01:57:53,15.0884731,0.0001123,53.217,115.4801,80.9929,279.119,7.5644e-05,9.16e-06,0.0,0 STARLINK-5415,1 54796U 22175AQ  23183.08186976  .00000916  00000-0  75644-4 0  9996,2 54796  53.2170 115.4801 0001123  80.9929 279.1190 15.08847310 29787,6917.858,95.437,540.5,538.946,0.0
54796.0,STARLINK-5415,PAYLOAD,2023-07-03 01:48:40,15.08838952,0.0001039,53.2169,111.0189,86.7781,273.333,0.00015115,2.119e-05,0.0,0 STARLINK-5415,1 54796U 22175AQ  23184.07547172  .00002119  00000-0  15115-3 0  9998,2 54796  53.2169 111.0189 0001039  86.7781 273.3330 15.08838952 29933,6917.884,95.438,540.467,539.03,0.0
54796.0,STARLINK-5415,PAYLOAD,2023-07-03 14:31:46,15.08837156,0.0001156,53.2169,108.641,85.9415,274.1709,2.0495e-05,3.8e-07,0.0,0 STARLINK-5415,1 54796U 22175AQ  23184.60539675  .00000038  00000-0  20495-4 0  9992,2 54796  53.2169 108.6410 0001156  85.9415 274.1709 15.08837156 30012,6917.889,95.438,540.554,538.954,0.0
54796.0,STARLINK-5415,PAYLOAD,2023-07-05 01:30:14,15.0884373,0.0001132,53.2172,102.0999,81.277,278.835,7.3741e-05,8.86e-06,0.0,0 STARLINK-5415,1 54796U 22175AQ  23186.06267278  .00000886  00000-0  73741-4 0  9994,2 54796  53.2172 102.0999 0001132  81.2770 278.8350 15.08843730 30235,6917.869,95.437,540.517,538.951,0.0
54796.0,STARLINK-5415,PAYLOAD,2023-07-05 11:02:34,15.08838343,0.0001163,53.217,100.3144,81.6718,278.4406,-2.3779e-05,-6.66e-06,0.0,0 STARLINK-5415,1 54796U 22175AQ  23186.46011836 -.00000666  00000-0 -23779-4 0  9999,2 54796  53.2170 100.3144 0001163  81.6718 278.4406 15.08838343 30294,6917.885,95.438,540.555,538.946,0.0
54796.0,STARLINK-5415,PAYLOAD,2023-07-06 01:21:02,15.08830063,0.0001192,53.217,97.6382,81.4021,278.7106,5.5287e-05,5.92e-06,0.0,0 STARLINK-5415,1 54796U 22175AQ  23187.05628470  .00000592  00000-0  55287-4 0  9998,2 54796  53.2170  97.6382 0001192  81.4021 278.7106 15.08830063 30384,6917.911,95.438,540.6,538.951,0.0
54796.0,STARLINK-5415,PAYLOAD,2023-07-07 02:47:12,15.08844763,0.0001192,53.2179,92.881,87.8636,272.2492,5.511e-05,5.89e-06,0.0,0 STARLINK-5415,1 54796U 22175AQ  23188.11611820  .00000589  00000-0  55110-4 0  9998,2 54796  53.2179  92.8810 0001192  87.8636 272.2492 15.08844763 30545,6917.866,95.437,540.555,538.906,0.0
54796.0,STARLINK-5415,PAYLOAD,2023-07-07 17:05:41,15.08838684,0.0001393,53.2187,90.2053,87.7088,272.4064,0.00012462,1.696e-05,0.0,0 STARLINK-5415,1 54796U 22175AQ  23188.71228168  .00001696  00000-0  12462-3 0  9995,2 54796  53.2187  90.2053 0001393  87.7088 272.4064 15.08838684 30630,6917.884,95.438,540.713,538.786,0.0
54796.0,STARLINK-5415,PAYLOAD,2023-07-09 02:28:47,15.08840026,0.0001277,53.2173,83.9594,90.5532,269.5607,4.3735e-05,4.08e-06,0.0,0 STARLINK-5415,1 54796U 22175AQ  23190.10332420  .00000408  00000-0  43735-4 0  9996,2 54796  53.2173  83.9594 0001277  90.5532 269.5607 15.08840026 30847,6917.88,95.438,540.629,538.862,0.0
54796.0,STARLINK-5415,PAYLOAD,2023-07-10 16:38:02,15.08836165,0.0001393,53.218,76.8213,99.2048,260.9102,4.4473e-05,4.2e-06,0.0,0 STARLINK-5415,1 54796U 22175AQ  23191.69308663  .00000420  00000-0  44473-4 0  9997,2 54796  53.2180  76.8213 0001393  99.2048 260.9102 15.08836165 31082,6917.892,95.438,540.721,538.793,0.0
54796.0,STARLINK-5415,PAYLOAD,2023-07-12 00:25:45,15.08841924,0.0001296,53.218,70.8758,93.5143,266.5997,2.5209e-05,1.13e-06,0.0,0 STARLINK-5415,1 54796U 22175AQ  23193.01788439  .00000113  00000-0  25209-4 0  9993,2 54796  53.2180  70.8758 0001296  93.5143 266.5997 15.08841924 31280,6917.875,95.437,540.636,538.843,0.0
54796.0,STARLINK-5415,PAYLOAD,2023-07-12 14:44:13,15.08834458,0.0001248,53.2182,68.2001,88.4284,271.6851,3.7849e-05,3.14e-06,0.0,0 STARLINK-5415,1 54796U 22175AQ  23193.61405007  .00000314  00000-0  37849-4 0  9992,2 54796  53.2182  68.2001 0001248  88.4284 271.6851 15.08834458 31370,6917.897,95.438,540.626,538.899,0.0
54796.0,STARLINK-5415,PAYLOAD,2023-07-14 01:42:42,15.08839915,0.0001048,53.2178,61.6579,91.739,268.3722,-5.4384e-06,-3.74e-06,0.0,0 STARLINK-5415,1 54796U 22175AQ  23195.07133085 -.00000374  00000-0 -54384-5 0  9990,2 54796  53.2178  61.6579 0001048  91.7390 268.3722 15.08839915 31592,6917.881,95.438,540.471,539.021,0.0
54796.0,STARLINK-5415,PAYLOAD,2023-07-15 01:33:29,15.08852499,0.0001084,53.2175,57.1967,97.5511,262.5604,0.00013389,1.844e-05,0.0,0 STARLINK-5415,1 54796U 22175AQ  23196.06492020  .00001844  00000-0  13389-3 0  9996,2 54796  53.2175  57.1967 0001084  97.5511 262.5604 15.08852499 31743,6917.842,95.437,540.457,538.957,0.0
54796.0,STARLINK-5415,PAYLOAD,2023-07-15 23:48:54,15.08839139,0.0001039,53.2184,53.0307,90.0879,270.0232,5.501e-05,5.88e-06,0.0,0 STARLINK-5415,1 54796U 22175AQ  23196.99229348  .00000588  00000-0  55010-4 0  9991,2 54796  53.2184  53.0307 0001039  90.0879 270.0232 15.08839139 31883,6917.883,95.438,540.467,539.029,0.0
54796.0,STARLINK-5415,PAYLOAD,2023-07-16 23:39:40,15.08847854,0.0001013,53.218,48.5727,87.2602,272.8506,1.3171e-05,-7.8e-07,0.0,0 STARLINK-5415,1 54796U 22175AQ  23197.98588944 -.00000078  00000-0  13171-4 0  9998,2 54796  53.2180  48.5727 0001013  87.2602 272.8506 15.08847854 32033,6917.856,95.437,540.422,539.021,0.0
54796.0,STARLINK-5415,PAYLOAD,2023-07-18 01:05:50,15.088579,0.0001142,53.2185,43.8156,80.2207,279.8914,0.0001533,2.154e-05,0.0,0 STARLINK-5415,1 54796U 22175AQ  23199.04571925  .00002154  00000-0  15330-3 0  9992,2 54796  53.2185  43.8156 0001142  80.2207 279.8914 15.08857900 32199,6917.826,95.436,540.481,538.901,0.0
54796.0,STARLINK-5415,PAYLOAD,2023-07-18 23:21:15,15.08840552,0.0001156,53.2187,39.6514,93.0676,267.0448,4.3364e-05,4.02e-06,0.0,0 STARLINK-5415,1 54796U 22175AQ  23199.97309269  .00000402  00000-0  43364-4 0  9997,2 54796  53.2187  39.6514 0001156  93.0676 267.0448 15.08840552 32331,6917.879,95.438,540.543,538.944,0.0
54796.0,STARLINK-5415,PAYLOAD,2023-07-19 18:25:53,15.08833993,0.0001249,53.2189,36.0818,106.5639,253.549,-6.0127e-05,-1.244e-05,0.0,0 STARLINK-5415,1 54796U 22175AQ  23200.76798157 -.00001244  00000-0 -60127-4 0  9998,2 54796  53.2189  36.0818 0001249 106.5639 253.5490 15.08833993 32454,6917.899,95.438,540.628,538.9,0.0
54796.0,STARLINK-5415,PAYLOAD,2023-07-20 23:02:49,15.08846477,0.0001261,53.218,30.7308,120.6313,239.4803,8.5731e-05,1.077e-05,0.0,0 STARLINK-5415,1 54796U 22175AQ  23201.96029190  .00001077  00000-0  85731-4 0  9995,2 54796  53.2180  30.7308 0001261 120.6313 239.4803 15.08846477 32632,6917.861,95.437,540.598,538.853,0.0
54796.0,STARLINK-5415,PAYLOAD,2023-07-21 13:21:18,15.08812394,0.0001246,53.2183,28.0548,113.4252,246.6871,0.0004715,7.218e-05,0.0,0 STARLINK-5415,1 54796U 22175AQ  23202.55646023  .00007218  00000-0  47150-3 0  9996,2 54796  53.2183  28.0548 0001246 113.4252 246.6871 15.08812394 32722,6917.965,95.439,540.692,538.968,0.0
